outlet_id,name,address,email_address,phone_number,address_id
32,Butler-King,21548 Kelly Viaduct Suite 211,lauren79@example.net,3582099619,668
68,Bray-Shelton,6252 Aguilar Hollow Apt. 077,pamela54@example.net,+1-728-698-6006,204
100,Johnson Inc,912 Miller Run,twalsh@example.org,253-576-9662x291,693
91,"Collins, Russo and Mcdonald",8838 Amanda Passage Suite 289,wallacetara@example.com,001-665-249-4415,529
86,"Fowler, Moreno and Ponce",07046 Butler Alley,moodygary@example.net,5167240795,447
92,Ferguson-Smith,21601 Catherine Parkway,mcgrathgregory@example.org,2898898560,996
7,Alexander-Rose,70081 Myers Neck Apt. 587,zachary98@example.net,432-652-2094,687
21,"Estrada, Clark and Warren",6217 Cherry Expressway Suite 566,staceynelson@example.net,2254881557,501
30,"Henderson, Byrd and Collins",548 Sanchez Mills Apt. 536,emilyboyd@example.net,001-499-301-5873,672
44,Coleman PLC,88052 Alexander Crossroad,jeffreyhickman@example.net,950-294-7806x5571,204
79,Williams Inc,75113 John Brook Apt. 980,jennifergarza@example.net,(638)333-3192x65094,47
43,Eaton Inc,340 Gonzales Street,donaldpeters@example.com,+1-887-512-6131x303,712
93,Ray and Sons,43032 Anderson Mountain,jason04@example.com,600.817.6558x59300,668
53,"Christian, Anderson and Williams",27304 Anderson Vista Suite 683,thorntonchristopher@example.com,+1-338-410-5557x230,253
55,Price-Leblanc,1211 Williams Trace Apt. 840,edwardsmichael@example.net,001-374-718-8119,693
8,Grant-Harris,542 Richard Unions Suite 112,samanthatorres@example.net,(400)320-6837x21858,182
1,Jackson-Fisher,11952 Brian Pines,reyespatricia@example.org,(742)600-9307,639
39,"Clark, Anderson and Hall",957 Rivera Terrace,douglas11@example.com,696.970.1291x6685,708
34,Gonzalez-Murray,8433 Buchanan Lakes Apt. 377,whamilton@example.net,6548425238,19
22,Long Group,88949 Cynthia Mountains,patricialang@example.net,599.985.6387x53373,542
70,Gonzalez-Miller,175 Kimberly Mountains Suite 373,jeffrey32@example.net,862-974-2118x0876,563
46,"Hall, York and Lowe",232 Brown Pine Suite 377,benjamindavis@example.org,+1-970-267-5852,314
74,Humphrey LLC,3332 Hannah Haven,farrellmary@example.com,417.992.0540x264,709
58,Jensen-Fox,355 Jimenez Extensions Suite 828,julie99@example.com,9718783102,550
9,Mcguire-Wright,8321 Katelyn Road Apt. 716,james19@example.com,326-824-5027,675
37,Newman Ltd,56609 Amanda Brooks Apt. 669,gutierrezsteven@example.net,001-793-257-0775x062,326
64,Johnson-Gill,38368 Bonnie Freeway,carlsonsarah@example.org,862.302.8748x2331,162
71,Stark-Garcia,45602 Robert Rest,william70@example.org,001-352-437-7452x40666,623
36,Adams-Lawrence,741 Young Valley,harrissusan@example.net,772.794.4760,78
14,Hoffman-Wong,196 Michael Rue Suite 153,nelsonjulie@example.net,001-364-508-0706x501,366
66,Perez Group,3915 Ellis Unions,jorge83@example.com,001-376-909-7516x3514,366
45,Gilbert Inc,8686 Hector Hill Suite 972,john22@example.net,972-484-2637,516
26,"Benson, Lopez and Ramsey",31432 Garcia Walks,riverarobert@example.org,001-442-911-7125,675
41,"Murphy, Shea and Doyle",696 Cody Loaf,ihuerta@example.net,600-823-5022,253
5,Roberts-Benitez,041 Rodriguez Villages,vnguyen@example.org,801.713.7550,326
19,Parker LLC,1163 Sanchez Flats,teresa46@example.net,001-960-640-5381x1425,708
25,Robles and Sons,69610 Chris Junctions Apt. 081,alexander71@example.com,001-356-791-5965x0871,834
47,Marshall-Sosa,9168 Wesley Corners,laurathompson@example.com,001-266-480-1414,560
24,Adams-Zimmerman,413 Samuel Knolls Suite 311,chelsea60@example.com,(304)223-0382,273
98,"Wilson, Huff and Parks",4867 Stephenson Island Apt. 112,johnsonmonique@example.com,001-530-303-5974,302
88,"Lopez, Knight and Powell",87933 Hunt Mountain,johnsonamanda@example.net,(670)987-9917x118,733
73,Farrell-Brooks,468 Jerry Mall,melissa45@example.net,8948712013,60
15,Padilla-Carroll,779 Dominguez Union,margaret77@example.net,(665)224-7502,644
2,Campbell LLC,885 James Radial Suite 521,martinjones@example.com,444-299-4202,733
33,Davis Ltd,319 Reed Throughway,andersonalex@example.com,+1-981-982-4660x082,845
42,Lee Ltd,774 Ford Hill Apt. 179,victoriawalton@example.org,8017351821,253
61,"Moon, Fuller and Brown",671 Russell Club Apt. 140,jstewart@example.org,+1-415-667-6939,501
85,Brown Group,43530 Henry Skyway,vangalan@example.com,249-632-2603x9058,18
89,"Mahoney, Williams and Harris",7594 Lewis Harbors Suite 610,grant72@example.net,748-510-3994x4540,194
11,"Rogers, Robinson and Brown",81506 Green Tunnel Suite 173,ghernandez@example.org,(381)652-2097x2145,397
